{
    "links": {
        "self": "http://www.neowsapp.com/rest/v1/neo/3441092?api_key=iIulBulltgU6a56xZRHN4H3l9WmuAYTsLGpBGhQ2"
    },
    "id": "3441092",
    "neo_reference_id": "3441092",
    "name": "(2008 XS)",
    "designation": "2008 XS",
    "nasa_jpl_url": "http://ssd.jpl.nasa.gov/sbdb.cgi?sstr=3441092",
    "absolute_magnitude_h": 27.1,
    "estimated_diameter": {
        "kilometers": {
            "estimated_diameter_min": 0.0101054342,
            "estimated_diameter_max": 0.0225964377
        },
        "meters": {
            "estimated_diameter_min": 10.1054341542,
            "estimated_diameter_max": 22.5964377109
        },
        "miles": {
            "estimated_diameter_min": 0.0062792237,
            "estimated_diameter_max": 0.0140407711
        },
        "feet": {
            "estimated_diameter_min": 33.1543125905,
            "estimated_diameter_max": 74.1352966996
        }
    },
    "is_potentially_hazardous_asteroid": false,
    "close_approach_data": [
        {
            "close_approach_date": "1960-01-09",
            "close_approach_date_full": "1960-Jan-09 15:36",
            "epoch_date_close_approach": -314871840000,
            "relative_velocity": {
                "kilometers_per_second": "15.528812553",
                "kilometers_per_hour": "55903.7251906895",
                "miles_per_hour": "34736.400799737"
            },
            "miss_distance": {
                "astronomical": "0.4195496885",
                "lunar": "163.2048288265",
                "kilometers": "62763739.758763495",
                "miles": "38999579.451566431"
            },
            "orbiting_body": "Earth"
        },
        {
            "close_approach_date": "1962-09-30",
            "close_approach_date_full": "1962-Sep-30 23:03",
            "epoch_date_close_approach": -228877020000,
            "relative_velocity": {
                "kilometers_per_second": "12.3317414789",
                "kilometers_per_hour": "44394.2693240803",
                "miles_per_hour": "27584.8725141765"
            },
            "miss_distance": {
                "astronomical": "0.3194084354",
                "lunar": "124.2498813706",
                "kilometers": "47782821.595872598",
                "miles": "29690868.5558059324"
            },
            "orbiting_body": "Earth"
        },
        {
            "close_approach_date": "1996-01-05",
            "close_approach_date_full": "1996-Jan-05 12:09",
            "epoch_date_close_approach": 820843740000,
            "relative_velocity": {
                "kilometers_per_second": "12.8772528802",
                "kilometers_per_hour": "46358.1103686847",
                "miles_per_hour": "28805.1269676975"
            },
            "miss_distance": {
                "astronomical": "0.3307859306",
                "lunar": "128.6757270034",
                "kilometers": "49484870.643727822",
                "miles": "30748472.7923830636"
            },
            "orbiting_body": "Earth"
        },
        {
            "close_approach_date": "1998-09-26",
            "close_approach_date_full": "1998-Sep-26 00:07",
            "epoch_date_close_approach": 906768420000,
            "relative_velocity": {
                "kilometers_per_second": "14.9277427124",
                "kilometers_per_hour": "53739.873764811",
                "miles_per_hour": "33391.8676734738"
            },
            "miss_distance": {
                "astronomical": "0.4058084243",
                "lunar": "157.8594770527",
                "kilometers": "60708075.903336241",
                "miles": "37722249.1623964858"
            },
            "orbiting_body": "Earth"
        },
        {
            "close_approach_date": "2008-11-28",
            "close_approach_date_full": "2008-Nov-28 12:35",
            "epoch_date_close_approach": 1227875700000,
            "relative_velocity": {
                "kilometers_per_second": "3.3136745535",
                "kilometers_per_hour": "11929.2283926394",
                "miles_per_hour": "7412.3586087486"
            },
            "miss_distance": {
                "astronomical": "0.0174170947",
                "lunar": "6.7752498383",
                "kilometers": "2605560.268708289",
                "miles": "1619020.0760168282"
            },
            "orbiting_body": "Earth"
        }
    ],
    "orbital_data": {
        "orbit_id": "9",
        "orbit_determination_date": "2017-04-06 09:01:58",
        "first_observation_date": "2008-12-02",
        "last_observation_date": "2008-12-07",
        "data_arc_in_days": 5,
        "observations_used": 18,
        "orbit_uncertainty": "7",
        "minimum_orbit_intersection": ".0180957",
        "jupiter_tisserand_invariant": "5.040",
        "epoch_osculation": "2459000.5",
        "eccentricity": ".2148529517659558",
        "semi_major_axis": "1.277374099288392",
        "inclination": "3.323739025102886",
        "ascending_node_longitude": "250.8801078330016",
        "orbital_period": "527.3216298881719",
        "perihelion_distance": "1.002926503546902",
        "perihelion_argument": "170.051676080298",
        "aphelion_distance": "1.551821695029882",
        "perihelion_time": "2459011.636867939305",
        "mean_anomaly": "352.3969125654868",
        "mean_motion": ".6826953031991966",
        "equinox": "J2000",
        "orbit_class": {
            "orbit_class_type": "APO",
            "orbit_class_description": "Near-Earth asteroid orbits which cross the Earth’s orbit similar to that of 1862 Apollo",
            "orbit_class_range": "a (semi-major axis) > 1.0 AU; q (perihelion) < 1.017 AU"
        }
    },
    "is_sentry_object": false
}